{
  "norad_id": 52648,
  "name": "STARLINK-3854",
  "history": [
    {
      "epoch": "2026-03-28T12:46:38.558208",
      "apogee_km": 540.7446121825833,
      "perigee_km": 538.7550279331335,
      "latitude_deg": 48.73090325538457,
      "longitude_deg": -144.09049087995663,
      "semi_major_axis_km": 6917.886820057858,
      "eccentricity": 0.0001438,
      "inclination_deg": 53.2181,
      "raan_deg": 174.5313,
      "arg_perigee_deg": 89.9219,
      "mean_anomaly_deg": 270.1938,
      "mean_motion_rev_day": 15.08837896
    }
  ]
}